{"type":"FeatureCollection", "features": [
{"type":"Feature","geometry":{"type":"Polygon","coordinates":[[[12.439,41.898],[12.438,41.906],[12.431,41.905],[12.431,41.898],[12.439,41.898]]]},"properties":{"id":"VAT"}},
{"type":"Feature","geometry":{"type":"MultiPolygon","coordinates":[[[[-2.668,51.623],[-3.136,51.205],[-4.188,51.189],[-4.583,50.776],[-5.342,50.246],[-4.173,50.391],[-3.793,50.229],[-3.405,50.632],[-2.548,50.616],[-1.517,50.747],[0.205,50.763],[0.96,50.926],[1.415,51.363],[0.687,51.387],[0.955,51.808],[1.559,52.087],[1.657,52.754],[0.559,52.967],[-0.206,54.022],[-0.671,54.504],[-1.292,54.774],[-1.655,55.57],[-2.147,55.903],[-3.178,56.08],[-2.653,56.318],[-1.778,57.494],[-2.074,57.702],[-3.403,57.708],[-3.99,57.959],[-3.212,58.321],[-3.053,58.635],[-4.715,58.51],[-5.338,58.239],[-5.818,57.436],[-5.562,57.233],[-5.937,56.606],[-5.392,56.515],[-5.61,56.055],[-5.246,55.929],[-4.721,55.421],[-5.135,54.858],[-3.958,54.781],[-2.925,53.733],[-3.065,53.427],[-4.111,53.219],[-3.98,52.542],[-4.383,52.197],[-5.088,51.996],[-4.902,51.626],[-4.386,51.741],[-3.293,51.39],[-2.668,51.623]]],[[[-6.218,54.089],[-5.607,54.273],[-5.47,54.5],[-6.129,55.217],[-7.219,55.092],[-8.118,54.414],[-7.355,54.121],[-6.218,54.089]]]]},"properties":{"id":"GBR"}},
{"type":"Feature","geometry":{"type":"Polygon","coordinates":[[[38.214,47.091],[38.287,47.559],[38.9,47.855],[39.736,47.845],[39.961,48.238],[39.687,49.008],[40.07,49.2],[39.781,49.572],[39.175,49.856],[38.259,50.052],[38.047,49.92],[37.423,50.411],[36.619,50.209],[35.412,50.54],[35.312,51.044],[34.281,51.312],[34.398,51.78],[33.735,52.345],[32.508,52.309],[31.763,52.101],[30.981,52.046],[30.533,51.596],[29.346,51.383],[29.136,51.617],[28.599,51.543],[27.27,51.614],[27.142,51.752],[25.925,51.914],[24.362,51.868],[23.605,51.518],[24.106,50.845],[23.712,50.377],[22.649,49.539],[22.539,49.073],[22.132,48.405],[22.877,47.947],[23.203,48.085],[24.893,47.718],[25.464,47.911],[26.163,47.993],[26.619,48.26],[27.549,48.478],[29.195,47.882],[29.16,47.456],[29.549,47.247],[29.878,46.829],[29.838,46.351],[29.146,46.527],[28.948,46.05],[28.213,45.45],[28.761,45.234],[29.224,45.403],[29.706,45.26],[29.602,45.683],[30.219,45.867],[30.796,46.552],[31.974,46.709],[32.036,46.261],[32.477,46.084],[33.202,46.176],[33.594,46.096],[33.66,46.22],[34.687,45.977],[35.002,45.733],[34.85,46.19],[35.827,46.624],[36.279,46.659],[37.34,46.917],[37.543,47.075],[38.214,47.091]]]},"properties":{"id":"UKR"}},
{"type":"Feature","geometry":{"type":"Polygon","coordinates":[[[9.524,47.524],[8.618,47.766],[8.198,47.607],[7.616,47.593],[7.001,47.323],[6.06,46.428],[6.758,46.416],[7.021,45.926],[7.993,46.016],[8.458,46.246],[8.954,45.83],[9.251,46.287],[9.939,46.362],[10.453,46.865],[9.58,47.057],[9.488,47.062],[9.528,47.271],[9.524,47.524]]]},"properties":{"id":"CHE"}},
{"type":"Feature","geometry":{"type":"MultiPolygon","coordinates":[[[[19.076,57.836],[18.537,57.831],[18.137,57.557],[18.7,57.243],[19.076,57.836]]],[[[11.388,59.037],[11.147,58.989],[11.449,58.118],[12.421,56.906],[12.884,56.618],[12.593,56.138],[13.321,55.346],[14.342,55.528],[14.215,55.833],[14.782,56.162],[15.997,56.223],[16.528,57.068],[16.652,58.434],[17.457,58.858],[18.285,59.109],[18.971,59.757],[18.558,60.254],[17.956,60.59],[17.251,60.701],[17.131,61.576],[17.417,61.741],[17.896,62.831],[18.463,62.896],[19.034,63.238],[20.763,63.868],[21.465,64.38],[21.138,64.809],[21.566,65.408],[23.102,65.735],[24.155,65.805],[23.701,66.481],[23.989,66.811],[23.468,67.45],[23.639,67.954],[22.782,68.391],[21.997,68.521],[20.622,69.037],[19.97,68.356],[18.379,68.562],[17.917,67.965],[17.325,68.104],[16.127,67.426],[16.404,67.055],[15.423,66.49],[14.543,66.129],[14.48,65.301],[13.65,64.582],[14.078,64.464],[13.961,64.014],[12.663,63.94],[12,63.292],[12.218,63.001],[12.304,62.286],[12.155,61.721],[12.881,61.352],[12.294,61.003],[12.589,60.451],[12.486,60.107],[11.681,59.592],[11.798,59.29],[11.388,59.037]]]]},"properties":{"id":"SWE"}},
{"type":"Feature","geometry":{"type":"MultiPolygon","coordinates":[[[[3.145,39.79],[2.785,39.855],[2.371,39.613],[3.073,39.301],[3.462,39.698],[3.145,39.79]]],[[[-1.794,43.407],[-2.337,43.328],[-3.046,43.372],[-3.605,43.519],[-4.523,43.416],[-5.666,43.582],[-7.262,43.595],[-7.698,43.765],[-8.874,43.334],[-9.235,42.977],[-8.691,42.274],[-8.777,41.941],[-8.213,42.134],[-7.921,41.884],[-7.404,41.834],[-6.618,41.942],[-6.212,41.532],[-6.928,41.009],[-6.81,40.343],[-7.037,39.714],[-7.445,39.536],[-7.046,38.907],[-7.343,38.457],[-7.185,38.006],[-7.504,37.585],[-7.406,37.179],[-6.885,37.194],[-6.492,36.955],[-6.041,36.188],[-5.625,36.026],[-5.171,36.424],[-4.674,36.506],[-4.367,36.718],[-2.112,36.777],[-1.798,37.233],[-1.328,37.561],[-0.822,37.581],[-0.647,38.152],[-0.381,38.436],[0.202,38.759],[-0.205,39.063],[-0.327,39.52],[1.033,41.062],[2.083,41.287],[3.248,41.944],[3.211,42.431],[2.033,42.354],[1.706,42.503],[1.486,42.434],[1.428,42.596],[-0.041,42.689],[-1.285,43.06],[-1.794,43.407]]]]},"properties":{"id":"ESP"}},
{"type":"Feature","geometry":{"type":"Polygon","coordinates":[[[22.539,49.073],[21.64,49.412],[20.616,49.392],[19.802,49.192],[19.442,49.598],[18.832,49.511],[18.161,49.257],[17.758,48.888],[17.188,48.861],[16.953,48.599],[17.147,48.006],[17.762,47.77],[18.724,47.787],[18.914,48.051],[19.899,48.131],[20.49,48.527],[21.451,48.552],[22.132,48.405],[22.539,49.073]]]},"properties":{"id":"SVK"}},
{"type":"Feature","geometry":{"type":"Polygon","coordinates":[[[16.516,46.5],[16.093,46.863],[15.958,46.678],[15.001,46.626],[14.504,46.417],[13.7,46.52],[13.4,46.318],[13.72,45.588],[13.578,45.517],[13.879,45.428],[14.734,45.508],[15.339,45.467],[15.625,45.834],[15.636,46.201],[16.516,46.5]]]},"properties":{"id":"SVN"}},
{"type":"Feature","geometry":{"type":"Polygon","coordinates":[[[22.705,44.238],[21.384,44.87],[21.492,45.122],[20.774,45.484],[20.775,45.75],[20.242,46.109],[19.531,46.155],[18.905,45.932],[19.055,45.527],[19.007,44.869],[19.357,44.859],[19.152,44.303],[19.584,44.043],[19.194,43.533],[19.552,43.212],[20.344,42.828],[21.057,43.092],[21.391,42.751],[21.753,42.67],[21.563,42.248],[22.344,42.314],[22.467,42.842],[22.977,43.188],[22.555,43.454],[22.421,44.007],[22.705,44.238]]]},"properties":{"id":"SRB"}},
{"type":"Feature","geometry":{"type":"Polygon","coordinates":[[[12.485,43.901],[12.515,43.953],[12.441,43.982],[12.397,43.935],[12.485,43.901]]]},"properties":{"id":"SMR"}},
{"type":"Feature","geometry":{"type":"MultiPolygon","coordinates":[[[[33.594,46.096],[33.665,45.947],[32.508,45.404],[33.555,45.098],[33.451,44.554],[33.91,44.388],[34.717,44.807],[35.088,44.803],[35.473,45.098],[36.393,45.065],[36.171,45.453],[35.374,45.354],[35.002,45.733],[34.687,45.977],[33.66,46.22],[33.594,46.096]]],[[[38.214,47.091],[39.293,47.106],[37.968,46.618],[38.184,46.095],[37.933,46.002],[37.647,45.377],[36.941,45.29],[37.411,44.735],[37.851,44.699],[38.181,44.42],[38.717,44.288],[39.978,43.42],[40.648,43.534],[41.581,43.219],[42,43.193],[42,66.409],[41.476,66.123],[39.817,65.598],[40.281,64.998],[39.758,64.577],[38.009,64.879],[36.883,65.172],[36.528,64.847],[37.184,64.408],[37.954,64.32],[38.071,64.026],[37.442,63.813],[36.365,64.003],[35.647,64.378],[34.87,64.56],[34.804,64.986],[34.406,65.396],[34.786,65.865],[33.567,66.321],[32.464,66.916],[34.825,66.611],[35.513,66.396],[38.398,66.064],[39.289,66.132],[40.522,66.447],[41.189,66.826],[40.966,67.713],[40.381,67.832],[35.858,69.192],[33.684,69.31],[32.378,69.479],[32.942,69.752],[31.985,69.954],[30.87,69.783],[28.966,69.022],[28.471,68.488],[29.344,68.062],[29.941,67.547],[29.087,66.971],[29.903,66.091],[29.604,64.968],[30.073,64.765],[30.108,64.366],[30.504,64.021],[30.055,63.689],[31.181,63.208],[31.534,62.885],[31.286,62.568],[29.69,61.546],[27.798,60.536],[28.651,60.611],[29.069,60.191],[28.947,59.829],[28.014,59.725],[28.013,59.484],[27.464,58.841],[27.488,58.27],[27.753,57.841],[27.352,57.528],[27.797,57.317],[27.806,56.867],[28.148,56.143],[28.795,55.943],[29.375,55.939],[29.482,55.685],[30.234,55.845],[30.907,55.57],[31.121,54.648],[31.404,54.196],[31.792,54.056],[32.704,53.336],[32.142,53.091],[31.418,53.196],[31.577,52.312],[31.763,52.101],[32.508,52.309],[33.735,52.345],[34.398,51.78],[34.281,51.312],[35.312,51.044],[35.412,50.54],[36.619,50.209],[37.423,50.411],[38.047,49.92],[38.259,50.052],[39.175,49.856],[39.781,49.572],[40.07,49.2],[39.687,49.008],[39.961,48.238],[39.736,47.845],[38.9,47.855],[38.287,47.559],[38.214,47.091]]],[[[20.958,55.279],[20.9,55.287],[20.52,54.995],[19.975,54.921],[19.604,54.459],[22.766,54.357],[22.831,54.838],[21.236,55.264],[20.958,55.279]]]]},"properties":{"id":"RUS"}},
{"type":"Feature","geometry":{"type":"Polygon","coordinates":[[[28.213,45.45],[28.1,45.973],[28.244,46.451],[28.072,46.978],[27.337,47.64],[26.981,48.155],[26.619,48.26],[26.163,47.993],[25.464,47.911],[24.893,47.718],[23.203,48.085],[22.877,47.947],[22.291,47.728],[21.152,46.304],[20.242,46.109],[20.775,45.75],[20.774,45.484],[21.492,45.122],[21.384,44.87],[22.705,44.238],[23.225,43.874],[25.497,43.671],[26.216,44.007],[27.087,44.167],[28.585,43.742],[28.645,44.296],[29.048,44.758],[29.558,44.843],[29.706,45.26],[29.224,45.403],[28.761,45.234],[28.213,45.45]]]},"properties":{"id":"ROU"}},
{"type":"Feature","geometry":{"type":"Polygon","coordinates":[[[-8.777,41.941],[-8.656,41.029],[-8.887,40.179],[-9.148,39.543],[-9.375,39.338],[-9.474,38.731],[-8.915,38.512],[-8.814,37.431],[-8.598,37.121],[-7.834,37.006],[-7.406,37.179],[-7.504,37.585],[-7.185,38.006],[-7.343,38.457],[-7.046,38.907],[-7.445,39.536],[-7.037,39.714],[-6.81,40.343],[-6.928,41.009],[-6.212,41.532],[-6.618,41.942],[-7.404,41.834],[-7.921,41.884],[-8.213,42.134],[-8.777,41.941]]]},"properties":{"id":"PRT"}},
{"type":"Feature","geometry":{"type":"Polygon","coordinates":[[[23.605,51.518],[23.652,52.04],[23.197,52.257],[23.845,52.664],[23.887,53.028],[23.485,53.94],[23.454,54.143],[22.766,54.357],[19.604,54.459],[18.67,54.431],[18.323,54.838],[17.262,54.73],[16.56,54.554],[16.186,54.29],[14.211,53.95],[14.214,53.871],[14.259,53.73],[14.415,53.283],[14.129,52.878],[14.619,52.529],[14.753,52.082],[14.602,51.832],[15.017,51.253],[14.809,50.859],[16.007,50.612],[16.679,50.097],[17.152,50.378],[17.875,49.972],[18.562,49.879],[18.832,49.511],[19.442,49.598],[19.802,49.192],[20.616,49.392],[21.64,49.412],[22.539,49.073],[22.649,49.539],[23.712,50.377],[24.106,50.845],[23.605,51.518]]]},"properties":{"id":"POL"}},
{"type":"Feature","geometry":{"type":"Polygon","coordinates":[[[20.622,69.037],[21.622,69.271],[22.411,68.72],[23.324,68.649],[23.854,68.806],[24.941,68.593],[25.748,68.99],[26.012,69.653],[26.525,69.915],[27.89,70.062],[29.142,69.671],[28.966,69.022],[30.87,69.783],[29.792,69.728],[29.601,69.977],[30.944,70.274],[29.102,70.861],[27.597,71.091],[25.768,70.853],[24.658,71.001],[24.42,70.702],[23.046,70.102],[22.685,70.375],[21.4,70.174],[21.163,69.89],[20.069,69.883],[18.293,69.475],[18.101,69.156],[16.652,68.626],[16.065,68.2],[14.799,67.809],[14.755,67.499],[13.105,66.539],[12.976,66.019],[12.273,65.568],[12.16,65.179],[11.35,64.906],[9.708,63.865],[9.697,63.625],[8.398,63.535],[8.101,63.091],[7.008,62.958],[7.284,62.602],[6.353,62.611],[5.533,62.311],[4.928,61.711],[5.049,60.708],[5.244,60.57],[5.132,59.226],[5.845,59.353],[5.707,58.524],[7.005,58.024],[8.166,58.145],[9.618,58.946],[10.834,59.184],[11.388,59.037],[11.798,59.29],[11.681,59.592],[12.486,60.107],[12.589,60.451],[12.294,61.003],[12.881,61.352],[12.155,61.721],[12.304,62.286],[12.218,63.001],[12,63.292],[12.663,63.94],[13.961,64.014],[14.078,64.464],[13.65,64.582],[14.48,65.301],[14.543,66.129],[15.423,66.49],[16.404,67.055],[16.127,67.426],[17.325,68.104],[17.917,67.965],[18.379,68.562],[19.97,68.356],[20.622,69.037]]]},"properties":{"id":"NOR"}},
{"type":"Feature","geometry":{"type":"MultiPolygon","coordinates":[[[[5.994,50.75],[5.895,50.984],[6.193,51.489],[5.949,51.762],[6.742,51.911],[7.035,52.38],[7.197,53.282],[6.816,53.441],[6.062,53.407],[4.678,52.81],[4.483,52.309],[3.587,51.454],[4.226,51.386],[4.503,51.475],[5.827,51.126],[5.994,50.75]]],[[[4.226,51.386],[3.35,51.378],[3.902,51.208],[4.226,51.386]]]]},"properties":{"id":"NLD"}},
{"type":"Feature","geometry":{"type":"Polygon","coordinates":[[[19.194,43.533],[18.94,43.497],[18.444,42.968],[18.436,42.56],[18.517,42.433],[19.342,41.869],[19.281,42.173],[19.654,42.629],[20.064,42.547],[20.344,42.828],[19.552,43.212],[19.194,43.533]]]},"properties":{"id":"MNE"}},
{"type":"Feature","geometry":{"type":"Polygon","coordinates":[[[26.619,48.26],[26.981,48.155],[27.337,47.64],[28.072,46.978],[28.244,46.451],[28.1,45.973],[28.213,45.45],[28.948,46.05],[29.146,46.527],[29.838,46.351],[29.878,46.829],[29.549,47.247],[29.16,47.456],[29.195,47.882],[27.549,48.478],[26.619,48.26]]]},"properties":{"id":"MDA"}},
{"type":"Feature","geometry":{"type":"Polygon","coordinates":[[[7.439,43.75],[7.414,43.771],[7.378,43.732],[7.439,43.75]]]},"properties":{"id":"MCO"}},
{"type":"Feature","geometry":{"type":"Polygon","coordinates":[[[14.566,35.853],[14.448,35.957],[14.352,35.872],[14.436,35.822],[14.566,35.853]]]},"properties":{"id":"MLT"}},
{"type":"Feature","geometry":{"type":"Polygon","coordinates":[[[21.563,42.248],[21.06,42.171],[20.566,41.874],[20.489,41.273],[20.964,40.85],[21.576,40.869],[21.929,41.107],[22.494,41.119],[22.916,41.336],[23.006,41.717],[22.837,41.994],[22.344,42.314],[21.563,42.248]]]},"properties":{"id":"MKD"}},
{"type":"Feature","geometry":{"type":"Polygon","coordinates":[[[6.117,50.121],[5.744,49.92],[5.79,49.538],[6.344,49.453],[6.487,49.798],[6.117,50.121]]]},"properties":{"id":"LUX"}},
{"type":"Feature","geometry":{"type":"Polygon","coordinates":[[[22.766,54.357],[23.454,54.143],[23.485,53.94],[24.768,53.975],[25.547,54.332],[25.859,54.919],[26.175,55.003],[26.594,55.668],[24.903,56.398],[24.121,56.264],[22.085,56.407],[21.046,56.07],[21.236,55.264],[22.831,54.838],[22.766,54.357]]]},"properties":{"id":"LTU"}},
{"type":"Feature","geometry":{"type":"Polygon","coordinates":[[[9.58,47.057],[9.528,47.271],[9.488,47.062],[9.58,47.057]]]},"properties":{"id":"LIE"}},
{"type":"Feature","geometry":{"type":"Polygon","coordinates":[[[26.594,55.668],[27.577,55.799],[28.148,56.143],[27.806,56.867],[27.797,57.317],[27.352,57.528],[26.533,57.531],[25.991,57.838],[25.111,58.063],[24.323,57.871],[24.403,57.325],[23.648,56.971],[22.555,57.724],[21.729,57.571],[21.071,56.824],[21.046,56.07],[22.085,56.407],[24.121,56.264],[24.903,56.398],[26.594,55.668]]]},"properties":{"id":"LVA"}},
{"type":"Feature","geometry":{"type":"Polygon","coordinates":[[[20.344,42.828],[20.064,42.547],[20.485,42.223],[20.566,41.874],[21.06,42.171],[21.563,42.248],[21.753,42.67],[21.391,42.751],[21.057,43.092],[20.344,42.828]]]},"properties":{"id":"KOS"}},
{"type":"Feature","geometry":{"type":"MultiPolygon","coordinates":[[[[7.021,45.926],[6.804,45.815],[7.153,45.401],[6.628,45.118],[7.031,44.717],[6.967,44.28],[7.651,44.034],[7.493,43.767],[8.082,43.919],[8.766,44.422],[10.048,44.02],[10.708,42.936],[11.168,42.535],[11.637,42.288],[12.631,41.47],[13.089,41.244],[13.733,41.236],[14.102,40.827],[14.766,40.668],[14.951,40.239],[15.693,39.99],[16.024,39.354],[16.197,38.759],[15.972,38.713],[15.725,37.939],[16.057,37.942],[16.546,38.409],[16.559,38.715],[17.175,38.998],[17.115,39.381],[16.598,39.639],[16.53,39.86],[16.928,40.458],[17.865,40.28],[18.078,39.937],[18.486,40.105],[17.955,40.655],[17.103,41.062],[16.013,41.435],[15.964,41.939],[15.169,41.934],[14.866,42.053],[14.01,42.69],[13.564,43.571],[12.691,43.995],[12.396,44.224],[12.248,44.723],[12.523,44.968],[12.274,45.446],[13.206,45.771],[13.72,45.588],[13.4,46.318],[13.7,46.52],[12.388,46.703],[12.154,46.935],[11.244,46.976],[11.025,46.797],[10.453,46.865],[9.939,46.362],[9.251,46.287],[8.954,45.83],[8.458,46.246],[7.993,46.016],[7.021,45.926]],[[12.439,41.898],[12.431,41.898],[12.431,41.905],[12.438,41.906],[12.439,41.898]],[[12.485,43.901],[12.397,43.935],[12.441,43.982],[12.515,43.953],[12.485,43.901]]],[[[15.577,38.22],[14.846,38.172],[14.506,38.046],[13.682,38.001],[13.352,38.181],[12.436,37.82],[14.502,36.799],[15.113,36.688],[15.295,37.013],[15.1,37.459],[15.577,38.22]]],[[[9.632,40.882],[9.283,41.202],[8.19,40.652],[8.471,40.293],[8.418,39.206],[8.881,38.913],[9.056,39.239],[9.563,39.166],[9.805,40.5],[9.632,40.882]]]]},"properties":{"id":"ITA"}},
{"type":"Feature","geometry":{"type":"Polygon","coordinates":[[[-7.219,55.092],[-7.247,55.353],[-8.275,55.146],[-8.764,54.681],[-8.623,54.347],[-9.996,54.276],[-9.795,53.395],[-9.299,53.098],[-9.956,52.137],[-10.379,51.869],[-9.58,51.689],[-9.296,51.498],[-8.813,51.585],[-7.527,52.099],[-6.561,52.189],[-6.027,52.927],[-6.218,54.089],[-7.355,54.121],[-8.118,54.414],[-7.219,55.092]]]},"properties":{"id":"IRL"}},
{"type":"Feature","geometry":{"type":"Polygon","coordinates":[[[-15.543,66.229],[-15.985,66.515],[-16.748,66.132],[-18.778,66.169],[-20.357,66.033],[-20.357,65.719],[-21.23,65.421],[-21.303,65.876],[-22.426,66.43],[-23.528,66.164],[-24.224,65.487],[-22.902,65.58],[-22.006,65.493],[-22.684,65.026],[-21.95,64.515],[-21.833,64.205],[-20.198,63.556],[-18.654,63.407],[-17.816,63.713],[-16.64,63.865],[-16.06,64.111],[-14.547,64.446],[-13.57,65.068],[-13.616,65.487],[-14.758,65.756],[-14.74,66.051],[-15.543,66.229]]]},"properties":{"id":"ISL"}},
{"type":"Feature","geometry":{"type":"Polygon","coordinates":[[[22.132,48.405],[21.451,48.552],[20.49,48.527],[19.899,48.131],[18.914,48.051],[18.724,47.787],[17.762,47.77],[17.147,48.006],[16.434,47.367],[16.453,47.007],[16.093,46.863],[16.516,46.5],[17.311,45.996],[17.964,45.77],[18.905,45.932],[19.531,46.155],[20.242,46.109],[21.152,46.304],[22.291,47.728],[22.877,47.947],[22.132,48.405]]]},"properties":{"id":"HUN"}},
{"type":"Feature","geometry":{"type":"MultiPolygon","coordinates":[[[[26.321,41.717],[26.155,41.435],[25.251,41.244],[24.056,41.527],[23.635,41.387],[22.916,41.336],[22.494,41.119],[21.929,41.107],[21.576,40.869],[20.964,40.85],[21.031,40.659],[20.657,40.117],[20.001,39.709],[20.301,39.327],[20.78,39.009],[21.113,38.385],[21.473,38.321],[22.422,38.439],[22.8,37.981],[21.825,38.328],[21.404,38.197],[21.145,37.919],[21.571,37.541],[21.583,37.081],[22.08,37.029],[22.608,36.78],[23.074,36.775],[22.765,37.393],[23.162,37.334],[23.194,37.959],[23.58,38.011],[23.967,38.275],[23.253,38.661],[22.966,39.031],[22.919,39.629],[22.592,40.037],[22.629,40.496],[23.312,40.216],[23.665,40.224],[23.879,40.544],[24.384,40.913],[25.104,40.995],[26.109,40.75],[26.331,41.239],[26.625,41.402],[26.321,41.717]]],[[[23.415,38.959],[23.252,38.801],[23.759,38.401],[24.099,38.671],[23.415,38.959]]],[[[23.852,35.535],[23.562,35.295],[24.464,35.16],[24.8,34.934],[25.745,35.143],[25.476,35.306],[24.721,35.425],[24.313,35.364],[23.852,35.535]]]]},"properties":{"id":"GRC"}},
{"type":"Feature","geometry":{"type":"Polygon","coordinates":[[[9.524,47.524],[10.313,47.313],[10.43,47.541],[11.298,47.425],[11.717,47.583],[12.686,47.669],[12.954,47.891],[12.814,48.161],[13.409,48.394],[13.815,48.767],[12.632,49.461],[12.277,50.181],[12.453,50.35],[14.369,50.899],[14.809,50.859],[15.017,51.253],[14.602,51.832],[14.753,52.082],[14.619,52.529],[14.129,52.878],[14.415,53.283],[14.259,53.73],[13.866,53.853],[13.029,54.411],[12.575,54.467],[12.111,54.168],[11.4,53.945],[10.36,54.438],[9.74,54.826],[8.67,54.903],[8.957,54.538],[8.898,53.836],[8.538,53.557],[8.009,53.691],[7.285,53.681],[7.197,53.282],[7.035,52.38],[6.742,51.911],[5.949,51.762],[6.193,51.489],[5.895,50.984],[5.994,50.75],[6.364,50.316],[6.117,50.121],[6.487,49.798],[6.344,49.453],[6.735,49.161],[7.451,49.152],[8.135,48.974],[7.584,48.064],[7.616,47.593],[8.198,47.607],[8.618,47.766],[9.524,47.524]]]},"properties":{"id":"DEU"}},
{"type":"Feature","geometry":{"type":"MultiPolygon","coordinates":[[[[7.616,47.593],[7.584,48.064],[8.135,48.974],[7.451,49.152],[6.735,49.161],[6.344,49.453],[5.79,49.538],[5.507,49.511],[4.868,49.788],[4.175,50.246],[2.84,50.712],[2.525,51.097],[1.913,50.991],[1.579,50.739],[1.552,50.294],[1.246,49.998],[0.187,49.703],[-0.163,49.297],[-1.139,49.388],[-1.259,49.68],[-1.856,49.684],[-1.438,48.641],[-2.446,48.648],[-2.692,48.537],[-3.231,48.841],[-4.721,48.54],[-4.393,48.368],[-4.629,48.086],[-4.312,47.823],[-3.159,47.695],[-2.019,47.038],[-1.787,46.515],[-1.146,46.311],[-1.066,45.806],[-1.246,44.56],[-1.485,43.564],[-1.794,43.407],[-1.285,43.06],[-0.041,42.689],[1.428,42.596],[1.706,42.503],[2.033,42.354],[3.211,42.431],[3.052,42.915],[3.259,43.193],[4.053,43.593],[4.629,43.387],[5.06,43.445],[5.407,43.229],[6.116,43.072],[6.494,43.169],[7.378,43.732],[7.414,43.771],[7.439,43.75],[7.493,43.767],[7.651,44.034],[6.967,44.28],[7.031,44.717],[6.628,45.118],[7.153,45.401],[6.804,45.815],[7.021,45.926],[6.758,46.416],[6.06,46.428],[7.001,47.323],[7.616,47.593]]],[[[9.48,42.805],[8.713,42.55],[8.808,41.588],[9.186,41.385],[9.551,42.13],[9.48,42.805]]]]},"properties":{"id":"FRA"}},
{"type":"Feature","geometry":{"type":"Polygon","coordinates":[[[24.155,65.805],[25.348,65.479],[25.373,65.009],[24.558,64.801],[23.249,63.896],[22.243,63.438],[21.104,62.623],[21.256,61.99],[21.606,61.592],[21.361,60.967],[21.436,60.596],[22.576,60.359],[22.793,60.077],[23.722,59.966],[25.656,60.333],[27.798,60.536],[29.69,61.546],[31.286,62.568],[31.534,62.885],[31.181,63.208],[30.055,63.689],[30.504,64.021],[30.108,64.366],[30.073,64.765],[29.604,64.968],[29.903,66.091],[29.087,66.971],[29.941,67.547],[29.344,68.062],[28.471,68.488],[28.966,69.022],[29.142,69.671],[27.89,70.062],[26.525,69.915],[26.012,69.653],[25.748,68.99],[24.941,68.593],[23.854,68.806],[23.324,68.649],[22.411,68.72],[21.622,69.271],[20.622,69.037],[21.997,68.521],[22.782,68.391],[23.639,67.954],[23.468,67.45],[23.989,66.811],[23.701,66.481],[24.155,65.805]]]},"properties":{"id":"FIN"}},
{"type":"Feature","geometry":{"type":"MultiPolygon","coordinates":[[[[27.352,57.528],[27.753,57.841],[27.488,58.27],[27.464,58.841],[28.013,59.484],[26.975,59.451],[25.509,59.639],[24.38,59.473],[23.494,59.196],[23.509,58.659],[23.768,58.361],[24.529,58.354],[24.323,57.871],[25.111,58.063],[25.991,57.838],[26.533,57.531],[27.352,57.528]]],[[[22.617,58.621],[22.081,58.478],[22.153,58.115],[23.293,58.483],[22.617,58.621]]]]},"properties":{"id":"EST"}},
{"type":"Feature","geometry":{"type":"MultiPolygon","coordinates":[[[[9.74,54.826],[9.591,55.493],[10.183,55.865],[10.283,56.621],[10.537,57.449],[9.962,57.581],[9.554,57.232],[8.619,57.111],[8.164,56.607],[8.132,55.6],[8.616,55.418],[8.67,54.903],[9.74,54.826]]],[[[12.569,55.785],[12.219,56.119],[10.979,55.722],[11.286,55.204],[11.654,55.187],[12.569,55.785]]],[[[10.645,55.61],[9.861,55.515],[9.989,55.163],[10.785,55.133],[10.645,55.61]]]]},"properties":{"id":"DNK"}},
{"type":"Feature","geometry":{"type":"Polygon","coordinates":[[[18.832,49.511],[18.562,49.879],[17.875,49.972],[17.152,50.378],[16.679,50.097],[16.007,50.612],[14.809,50.859],[14.369,50.899],[12.453,50.35],[12.277,50.181],[12.632,49.461],[13.815,48.767],[14.049,48.602],[14.691,48.599],[14.972,48.984],[16.057,48.755],[16.478,48.8],[16.953,48.599],[17.188,48.861],[17.758,48.888],[18.161,49.257],[18.832,49.511]]]},"properties":{"id":"CZE"}},
{"type":"Feature","geometry":{"type":"Polygon","coordinates":[[[32.713,35.171],[32.317,34.953],[32.449,34.729],[32.942,34.576],[33.514,34.806],[33.384,35.163],[32.713,35.171]]]},"properties":{"id":"CYP"}},
{"type":"Feature","geometry":{"type":"MultiPolygon","coordinates":[[[[13.578,45.517],[13.629,45.108],[13.966,44.836],[14.386,45.342],[14.855,45.081],[15.123,44.257],[15.942,43.657],[16.903,43.392],[17.585,42.938],[17.625,43.043],[16.214,44.215],[15.737,44.766],[15.788,45.179],[16.293,45.009],[16.531,45.217],[17.813,45.078],[18.663,45.077],[19.007,44.869],[19.055,45.527],[18.905,45.932],[17.964,45.77],[17.311,45.996],[16.516,46.5],[15.636,46.201],[15.625,45.834],[15.339,45.467],[14.734,45.508],[13.879,45.428],[13.578,45.517]]],[[[18.436,42.56],[17.668,42.897],[18.517,42.433],[18.436,42.56]]]]},"properties":{"id":"HRV"}},
{"type":"Feature","geometry":{"type":"Polygon","coordinates":[[[26.321,41.717],[26.615,41.965],[27.295,42.08],[27.535,41.921],[27.983,42.047],[27.485,42.468],[27.889,42.75],[27.929,43.186],[28.465,43.389],[28.585,43.742],[27.087,44.167],[26.216,44.007],[25.497,43.671],[23.225,43.874],[22.705,44.238],[22.421,44.007],[22.555,43.454],[22.977,43.188],[22.467,42.842],[22.344,42.314],[22.837,41.994],[23.006,41.717],[22.916,41.336],[23.635,41.387],[24.056,41.527],[25.251,41.244],[26.155,41.435],[26.321,41.717]]]},"properties":{"id":"BGR"}},
{"type":"Feature","geometry":{"type":"Polygon","coordinates":[[[19.194,43.533],[19.584,44.043],[19.152,44.303],[19.357,44.859],[19.007,44.869],[18.663,45.077],[17.813,45.078],[16.531,45.217],[16.293,45.009],[15.788,45.179],[15.737,44.766],[16.214,44.215],[17.625,43.043],[17.585,42.938],[17.668,42.897],[18.436,42.56],[18.444,42.968],[18.94,43.497],[19.194,43.533]]]},"properties":{"id":"BIH"}},
{"type":"Feature","geometry":{"type":"Polygon","coordinates":[[[4.226,51.386],[3.902,51.208],[3.35,51.378],[2.525,51.097],[2.84,50.712],[4.175,50.246],[4.868,49.788],[5.507,49.511],[5.79,49.538],[5.744,49.92],[6.117,50.121],[6.364,50.316],[5.994,50.75],[5.827,51.126],[4.503,51.475],[4.226,51.386]]]},"properties":{"id":"BEL"}},
{"type":"Feature","geometry":{"type":"Polygon","coordinates":[[[31.763,52.101],[31.577,52.312],[31.418,53.196],[32.142,53.091],[32.704,53.336],[31.792,54.056],[31.404,54.196],[31.121,54.648],[30.907,55.57],[30.234,55.845],[29.482,55.685],[29.375,55.939],[28.795,55.943],[28.148,56.143],[27.577,55.799],[26.594,55.668],[26.175,55.003],[25.859,54.919],[25.547,54.332],[24.768,53.975],[23.485,53.94],[23.887,53.028],[23.845,52.664],[23.197,52.257],[23.652,52.04],[23.605,51.518],[24.362,51.868],[25.925,51.914],[27.142,51.752],[27.27,51.614],[28.599,51.543],[29.136,51.617],[29.346,51.383],[30.533,51.596],[30.981,52.046],[31.763,52.101]]]},"properties":{"id":"BLR"}},
{"type":"Feature","geometry":{"type":"Polygon","coordinates":[[[9.528,47.271],[9.58,47.057],[10.453,46.865],[11.025,46.797],[11.244,46.976],[12.154,46.935],[12.388,46.703],[13.7,46.52],[14.504,46.417],[15.001,46.626],[15.958,46.678],[16.093,46.863],[16.453,47.007],[16.434,47.367],[17.147,48.006],[16.953,48.599],[16.478,48.8],[16.057,48.755],[14.972,48.984],[14.691,48.599],[14.049,48.602],[13.815,48.767],[13.409,48.394],[12.814,48.161],[12.954,47.891],[12.686,47.669],[11.717,47.583],[11.298,47.425],[10.43,47.541],[10.313,47.313],[9.524,47.524],[9.528,47.271]]]},"properties":{"id":"AUT"}},
{"type":"Feature","geometry":{"type":"Polygon","coordinates":[[[1.706,42.503],[1.428,42.596],[1.486,42.434],[1.706,42.503]]]},"properties":{"id":"AND"}},
{"type":"Feature","geometry":{"type":"Polygon","coordinates":[[[19.342,41.869],[19.441,41.425],[19.398,40.285],[19.852,40.044],[20.001,39.709],[20.657,40.117],[21.031,40.659],[20.964,40.85],[20.489,41.273],[20.566,41.874],[20.485,42.223],[20.064,42.547],[19.654,42.629],[19.281,42.173],[19.342,41.869]]]},"properties":{"id":"ALB"}}
]}